NORAD_CAT_ID,OBJECT_NAME,OBJECT_TYPE,EPOCH,MEAN_MOTION,ECCENTRICITY,INCLINATION,RA_OF_ASC_NODE,ARG_OF_PERICENTER,MEAN_ANOMALY,BSTAR,MEAN_MOTION_DOT,MEAN_MOTION_DDOT,TLE_LINE0,TLE_LINE1,TLE_LINE2,SEMIMAJOR_AXIS,PERIOD,APOGEE,PERIGEE,DECAYED
52565.0,STARLINK-3911,PAYLOAD,2023-02-08 13:22:17,15.08847688,0.0001118,53.2178,130.0381,77.8036,282.3081,-1.9618e-05,-6e-06,0.0,0 STARLINK-3911,1 52565U 22051AJ  23039.55714367 -.00000600  00000-0 -19618-4 0  9995,2 52565  53.2178 130.0381 0001118  77.8036 282.3081 15.08847688 41722,6917.857,95.437,540.495,538.948,0.0
52565.0,STARLINK-3911,PAYLOAD,2023-02-08 14:57:39,15.08853852,9.79e-05,53.2172,129.7423,98.5701,261.5402,-2.6642e-05,-7.12e-06,0.0,0 STARLINK-3911,1 52565U 22051AJ  23039.62337946 -.00000712  00000-0 -26642-4 0  9996,2 52565  53.2172 129.7423 0000979  98.5701 261.5402 15.08853852 41738,6917.838,95.437,540.38,539.026,0.0
52565.0,STARLINK-3911,PAYLOAD,2023-02-09 05:16:09,15.08829932,8.99e-05,53.2171,127.0679,98.142,261.9674,3.3109e-05,2.39e-06,0.0,0 STARLINK-3911,1 52565U 22051AJ  23040.21955361  .00000239  00000-0  33109-4 0  9998,2 52565  53.2171 127.0679 0000899  98.1420 261.9674 15.08829932 41890,6917.911,95.438,540.398,539.154,0.0
52565.0,STARLINK-3911,PAYLOAD,2023-02-09 11:37:41,15.08849744,9.48e-05,53.2173,125.8756,98.3309,261.7791,2.5391e-05,1.16e-06,0.0,0 STARLINK-3911,1 52565U 22051AJ  23040.48450263  .00000116  00000-0  25391-4 0  9996,2 52565  53.2173 125.8756 0000948  98.3309 261.7791 15.08849744 41865,6917.851,95.437,540.371,539.06,0.0
52565.0,STARLINK-3911,PAYLOAD,2023-02-09 13:13:04,15.08837299,8.63e-05,53.2171,125.5801,93.7763,266.3328,0.0003089,4.631e-05,0.0,0 STARLINK-3911,1 52565U 22051AJ  23040.55074328  .00004631  00000-0  30890-3 0  9993,2 52565  53.2171 125.5801 0000863  93.7763 266.3328 15.08837299 41948,6917.889,95.438,540.351,539.157,0.0
52565.0,STARLINK-3911,PAYLOAD,2023-02-10 00:20:46,15.08836509,0.0001272,53.2165,123.5,78.7932,281.3203,9.7226e-05,1.26e-05,0.0,0 STARLINK-3911,1 52565U 22051AJ  23041.01443089  .00001260  00000-0  97226-4 0  9991,2 52565  53.2165 123.5000 0001272  78.7932 281.3203 15.08836509 42017,6917.891,95.438,540.636,538.876,0.0
52565.0,STARLINK-3911,PAYLOAD,2023-02-10 11:28:28,15.08851929,0.0001148,53.2169,121.4162,82.2937,277.8186,0.00012862,1.76e-05,0.0,0 STARLINK-3911,1 52565U 22051AJ  23041.47810363  .00001760  00000-0  12862-3 0  9991,2 52565  53.2169 121.4162 0001148  82.2937 277.8186 15.08851929 42084,6917.844,95.437,540.503,538.915,0.0
52565.0,STARLINK-3911,PAYLOAD,2023-02-10 22:36:10,15.08844925,0.0001285,53.2177,119.335,87.7023,272.4116,3.5684e-05,2.8e-06,0.0,0 STARLINK-3911,1 52565U 22051AJ  23041.94178969  .00000280  00000-0  35684-4 0  9996,2 52565  53.2177 119.3350 0001285  87.7023 272.4116 15.08844925 42156,6917.865,95.437,540.619,538.841,0.0
52565.0,STARLINK-3911,PAYLOAD,2023-02-11 08:08:30,15.08828445,0.0001138,53.2168,117.5516,94.702,265.4102,5.5162e-05,5.9e-06,0.0,0 STARLINK-3911,1 52565U 22051AJ  23042.33924189  .00000590  00000-0  55162-4 0  9990,2 52565  53.2168 117.5516 0001138  94.7020 265.4102 15.08828445 42215,6917.916,95.438,540.568,538.993,0.0
52565.0,STARLINK-3911,PAYLOAD,2023-02-11 14:30:01,15.08853165,0.0001085,53.218,116.3598,118.8755,241.2346,0.00017435,2.489e-05,0.0,0 STARLINK-3911,1 52565U 22051AJ  23042.60418181  .00002489  00000-0  17435-3 0  9999,2 52565  53.2180 116.3598 0001085 118.8755 241.2346 15.08853165 42185,6917.84,95.437,540.456,538.955,0.0
52565.0,STARLINK-3911,PAYLOAD,2023-02-11 22:26:58,15.08842853,0.0001169,53.2176,114.8742,105.5803,254.5318,-7.0635e-05,-1.412e-05,0.0,0 STARLINK-3911,1 52565U 22051AJ  23042.93539378 -.00001412  00000-0 -70635-4 0  9996,2 52565  53.2176 114.8742 0001169 105.5803 254.5318 15.08842853 42306,6917.872,95.437,540.545,538.928,0.0
52565.0,STARLINK-3911,PAYLOAD,2023-02-12 07:59:17,15.08833477,0.000129,53.2161,113.0917,91.8321,268.2818,9.7891e-05,1.27e-05,0.0,0 STARLINK-3911,1 52565U 22051AJ  23043.33283979  .00001270  00000-0  97891-4 0  9997,2 52565  53.2161 113.0917 0001290  91.8321 268.2818 15.08833477 42367,6917.9,95.438,540.658,538.873,0.0
52565.0,STARLINK-3911,PAYLOAD,2023-02-12 11:10:02,15.088477,0.0001324,53.2155,112.4966,95.5957,264.5186,0.00019815,2.868e-05,0.0,0 STARLINK-3911,1 52565U 22051AJ  23043.46530836  .00002868  00000-0  19815-3 0  9991,2 52565  53.2155 112.4966 0001324  95.5957 264.5186 15.08847700 42317,6917.857,95.437,540.638,538.806,0.0
52565.0,STARLINK-3911,PAYLOAD,2023-02-12 14:20:48,15.08855498,0.0001131,53.2159,111.9023,92.1999,267.9123,0.0001483,2.074e-05,0.0,0 STARLINK-3911,1 52565U 22051AJ  23043.59778302  .00002074  00000-0  14830-3 0  9998,2 52565  53.2159 111.9023 0001131  92.1999 267.9123 15.08855498 42405,6917.833,95.437,540.48,538.916,0.0
52565.0,STARLINK-3911,PAYLOAD,2023-02-12 23:53:08,15.08833546,0.0001332,53.2157,110.1175,95.6355,264.4789,0.00011317,1.513e-05,0.0,0 STARLINK-3911,1 52565U 22051AJ  23043.99523852  .00001513  00000-0  11317-3 0  9994,2 52565  53.2157 110.1175 0001332  95.6355 264.4789 15.08833546 42465,6917.9,95.438,540.687,538.844,0.0
52565.0,STARLINK-3911,PAYLOAD,2023-02-13 11:00:50,15.0883832,0.0001339,53.2157,108.036,96.3959,263.7186,0.00014019,1.944e-05,0.0,0 STARLINK-3911,1 52565U 22051AJ  23044.45891680  .00001944  00000-0  14019-3 0  9993,2 52565  53.2157 108.0360 0001339  96.3959 263.7186 15.08838320 42460,6917.886,95.438,540.677,538.824,0.0
52565.0,STARLINK-3911,PAYLOAD,2023-02-13 15:46:59,15.08846273,0.0001528,53.2138,107.1425,89.1967,270.92,7.6373e-05,9.28e-06,0.0,0 STARLINK-3911,1 52565U 22051AJ  23044.65763309  .00000928  00000-0  76373-4 0  9994,2 52565  53.2138 107.1425 0001528  89.1967 270.9200 15.08846273 42564,6917.861,95.437,540.783,538.669,0.0
52565.0,STARLINK-3911,PAYLOAD,2023-02-13 20:33:10,15.08823059,0.0002253,53.216,106.2479,84.1547,275.9702,-0.00021505,-3.708e-05,0.0,0 STARLINK-3911,1 52565U 22051AJ  23044.85637523 -.00003708  00000-0 -21505-3 0  9991,2 52565  53.2160 106.2479 0002253  84.1547 275.9702 15.08823059 42595,6917.932,95.439,541.356,538.239,0.0
52565.0,STARLINK-3911,PAYLOAD,2023-02-14 06:05:28,15.08829266,0.0001279,53.2175,104.4664,126.5248,233.5863,1.7818e-05,-4e-08,0.0,0 STARLINK-3911,1 52565U 22051AJ  23045.25380712 -.00000004  00000-0  17818-4 0  9999,2 52565  53.2175 104.4664 0001279 126.5248 233.5863 15.08829266 42654,6917.913,95.438,540.663,538.893,0.0
52565.0,STARLINK-3911,PAYLOAD,2023-02-14 12:27:01,15.08839976,0.000127,53.2129,103.275,102.6638,257.4496,-6.8876e-06,-3.97e-06,0.0,0 STARLINK-3911,1 52565U 22051AJ  23045.51876249 -.00000397  00000-0 -68876-5 0  9990,2 52565  53.2129 103.2750 0001270 102.6638 257.4496 15.08839976 42628,6917.88,95.438,540.624,538.867,0.0
52565.0,STARLINK-3911,PAYLOAD,2023-02-15 12:17:46,15.0885904,0.0001,53.2176,98.8157,91.1594,268.9513,0.00011381,1.525e-05,0.0,0 STARLINK-3911,1 52565U 22051AJ  23046.51234791  .00001525  00000-0  11381-3 0  9990,2 52565  53.2176  98.8157 0001000  91.1594 268.9513 15.08859040 42849,6917.822,95.436,540.379,538.995,0.0
52565.0,STARLINK-3911,PAYLOAD,2023-02-15 20:14:43,15.08850865,0.0001276,53.217,97.3294,98.8156,261.2981,1.5777e-05,-3.7e-07,0.0,0 STARLINK-3911,1 52565U 22051AJ  23046.84355404 -.00000037  00000-0  15777-4 0  9993,2 52565  53.2170  97.3294 0001276  98.8156 261.2981 15.08850865 42898,6917.847,95.437,540.595,538.829,0.0
52565.0,STARLINK-3911,PAYLOAD,2023-02-16 12:08:32,15.08874449,0.0001256,53.2165,94.3558,116.1007,244.0115,0.00043864,6.706e-05,0.0,0 STARLINK-3911,1 52565U 22051AJ  23047.50593607  .00006706  00000-0  43864-3 0  9991,2 52565  53.2165  94.3558 0001256 116.1007 244.0115 15.08874449 42925,6917.775,95.435,540.509,538.771,0.0
52565.0,STARLINK-3911,PAYLOAD,2023-02-16 13:43:55,15.08880671,0.0001217,53.2166,94.0592,114.2944,245.8175,0.00054128,8.347e-05,0.0,0 STARLINK-3911,1 52565U 22051AJ  23047.57217222  .00008347  00000-0  54128-3 0  9992,2 52565  53.2166  94.0592 0001217 114.2944 245.8175 15.08880671 43006,6917.756,95.435,540.463,538.779,0.0
52565.0,STARLINK-3911,PAYLOAD,2023-02-16 20:05:30,15.08817754,0.0001055,53.2165,92.871,242.1563,117.9322,-0.00039447,-6.556e-05,0.0,0 STARLINK-3911,1 52565U 22051AJ  23047.83715542 -.00006556  00000-0 -39447-3 0  9998,2 52565  53.2165  92.8710 0001055 242.1563 117.9322 15.08817754 42971,6917.948,95.439,540.543,539.084,0.0
52565.0,STARLINK-3911,PAYLOAD,2023-02-17 10:23:59,15.0881757,0.0001385,53.2167,90.1948,90.0663,270.0488,-0.00025426,-4.33e-05,0.0,0 STARLINK-3911,1 52565U 22051AJ  23048.43333131 -.00004330  00000-0 -25426-3 0  9995,2 52565  53.2167  90.1948 0001385  90.0663 270.0488 15.08817570 43065,6917.949,95.439,540.772,538.856,0.0
52565.0,STARLINK-3911,PAYLOAD,2023-02-17 19:56:18,15.08829489,0.0001401,53.2169,88.4099,85.8992,274.2161,-0.00016705,-2.945e-05,0.0,0 STARLINK-3911,1 52565U 22051AJ  23048.83076863 -.00002945  00000-0 -16705-3 0  9995,2 52565  53.2169  88.4099 0001401  85.8992 274.2161 15.08829489 43190,6917.913,95.438,540.747,538.808,0.0
52565.0,STARLINK-3911,PAYLOAD,2023-02-18 13:25:33,15.08853033,0.0001433,53.2155,85.1385,82.6303,277.4852,0.0016288,0.00025739,0.0,0 STARLINK-3911,1 52565U 22051AJ  23049.55941552  .00025739  00000-0  16288-2 0  9990,2 52565  53.2155  85.1385 0001433  82.6303 277.4852 15.08853033 43232,6917.841,95.437,540.697,538.714,0.0
52565.0,STARLINK-3911,PAYLOAD,2023-02-18 19:47:05,15.08856591,0.0001317,53.2156,83.9486,80.6362,279.4779,0.0012581,0.000198,0.0,0 STARLINK-3911,1 52565U 22051AJ  23049.82437408  .00019800  00000-0  12581-2 0  9994,2 52565  53.2156  83.9486 0001317  80.6362 279.4779 15.08856591 43349,6917.83,95.437,540.606,538.784,0.0
52565.0,STARLINK-3911,PAYLOAD,2023-02-19 13:16:19,15.08875082,0.0001479,53.2159,80.6766,86.8356,273.2805,0.0010569,0.00016589,0.0,0 STARLINK-3911,1 52565U 22051AJ  23050.55300335  .00016589  00000-0  10569-2 0  9999,2 52565  53.2159  80.6766 0001479  86.8356 273.2805 15.08875082 43389,6917.773,95.435,540.661,538.615,0.0
